[{"OBJECT_NAME":"JINJUSAT-1B","OBJECT_ID":"2025-052A","EPOCH":"2026-03-09T15:55:38.242848","MEAN_MOTION":15.30194857,"ECCENTRICITY":0.00055504,"INCLINATION":97.4113,"RA_OF_ASC_NODE":325.4613,"ARG_OF_PERICENTER":82.193,"MEAN_ANOMALY":277.9941,"EPHEMERIS_TYPE":0,"CLASSIFICATION_TYPE":"U","NORAD_CAT_ID":63210,"ELEMENT_SET_NO":999,"REV_AT_EPOCH":5486,"BSTAR":0.00068430401,"MEAN_MOTION_DOT":0.00019955,"MEAN_MOTION_DDOT":0},{"OBJECT_NAME":"STARLINK-34771","OBJECT_ID":"2025-167A","EPOCH":"2026-03-09T03:37:42.149856","MEAN_MOTION":15.30197852,"ECCENTRICITY":0.00010794,"INCLINATION":53.1615,"RA_OF_ASC_NODE":26.6352,"ARG_OF_PERICENTER":70.3215,"MEAN_ANOMALY":289.7903,"EPHEMERIS_TYPE":0,"CLASSIFICATION_TYPE":"U","NORAD_CAT_ID":65078,"ELEMENT_SET_NO":999,"REV_AT_EPOCH":3343,"BSTAR":0.0011303519,"MEAN_MOTION_DOT":0.00033266,"MEAN_MOTION_DDOT":0}]
